[{"OBJECT_NAME":"COSMOS 2506","OBJECT_ID":"2015-029A","EPOCH":"2026-03-09T23:04:50.378016","MEAN_MOTION":14.54348608,"ECCENTRICITY":0.00085368,"INCLINATION":98.0605,"RA_OF_ASC_NODE":113.48,"ARG_OF_PERICENTER":100.8275,"MEAN_ANOMALY":259.3883,"EPHEMERIS_TYPE":0,"CLASSIFICATION_TYPE":"U","NORAD_CAT_ID":40699,"ELEMENT_SET_NO":999,"REV_AT_EPOCH":56846,"BSTAR":2.4503149e-5,"MEAN_MOTION_DOT":6.1e-7,"MEAN_MOTION_DDOT":0},{"OBJECT_NAME":"NOAA 16 DEB","OBJECT_ID":"2000-055JL","EPOCH":"2026-03-07T12:53:45.037248","MEAN_MOTION":14.55795806,"ECCENTRICITY":0.00325214,"INCLINATION":99.0006,"RA_OF_ASC_NODE":283.3927,"ARG_OF_PERICENTER":90.9573,"MEAN_ANOMALY":269.5348,"EPHEMERIS_TYPE":0,"CLASSIFICATION_TYPE":"U","NORAD_CAT_ID":41367,"ELEMENT_SET_NO":999,"REV_AT_EPOCH":52532,"BSTAR":0.0030810146,"MEAN_MOTION_DOT":0.00013565,"MEAN_MOTION_DDOT":0}]
